SatCatId,ObjectName,LaunchYear,OrbitalPeriod,LaunchMass,StatusCode,Inclination,Status,UcsData,OrbitClassEstimated,LaunchSiteCountry,Owner,UseType,Purpose,LaunchVehicleClass,TLE1,TLE2,MeanMotion,Eccentricity,OrbitClass
39509,ATHENA-FIDUS,2014,1436.13,3080.0,+,0.02,Active,1,GSO,French Guiana,France/Italy,Government/Military,Communications,Ariane,1 39509U 14006B   24203.58221589  .00000159  00000+0  00000+0 0  9991,2 39509   0.0264 103.2615 0001352  18.2344  65.7186  1.00270108 38105,1.00270108,0.0001352,GEO
39522,TURKSAT 4A,2014,1436.05,4869.0,+,0.08,Active,1,GSO,Kazakhstan,Turkey,Commercial,Communications,Proton,1 39522U 14007A   24203.58299910  .00000151  00000+0  00000+0 0  9992,2 39522   0.0719 259.5900 0001671 274.3262  17.8035  1.00268192 38005,1.00268192,0.0001671,GEO
39533,NAVSTAR 69 (USA 248),2014,717.95,1630.0,+,53.6,Active,1,MEO,USA,USA,Commercial/Military,Navigation (Global or Regional Positioning),Delta,1 39533U 14008A   24203.16482961  .00000057  00000+0  00000+0 0  9994,2 39533  53.6022 177.6834 0073418 221.1421 138.2764  2.00570386 75728,2.00570386,0.0073418,MEO
39574,GPM-CORE,2014,93.2,3850.0,+,64.99,Active,1,LEO,Japan,Japan,Government,Earth Observation,H2A,1 39574U 14009C   24203.57325718  .00024182  00000+0  51211-3 0  9990,2 39574  64.9858 117.9440 0006612 265.7631  94.2754 15.45058946590362,15.45058946,0.0006612,LEO
39612,EXPRESS-AT1,2014,1436.05,1726.0,+,0.01,Active,1,GSO,Kazakhstan,Russia/USSR,Commercial,Communications,Proton,1 39612U 14010A   24203.58578382  .00000083  00000+0  00000+0 0  9993,2 39612   0.0139 358.2722 0000543  32.6992 175.7375  1.00271780 37841,1.0027178,5.43e-05,GEO
39613,EXPRESS-AT2,2014,1436.11,1427.0,+,0.01,Active,1,GSO,Kazakhstan,Russia/USSR,Commercial,Communications,Proton,1 39613U 14010B   24203.09359314 -.00000276  00000+0  00000+0 0  9997,2 39613   0.0193  55.1860 0000317  26.4293  31.2695  1.00267938 37528,1.00267938,3.17e-05,GEO
39616,AMAZONAS 4A,2014,1436.11,2938.0,P,0.06,Active,1,GSO,French Guiana,Spain,Commercial,Communications,Ariane,1 39616U 14011A   24203.55976406 -.00000247  00000+0  00000+0 0  9997,2 39616   0.0663 140.7095 0003466 339.0268 307.5808  1.00270383 37722,1.00270383,0.0003466,GEO
39617,ASTRA 5B,2014,1436.13,5724.0,+,0.09,Active,1,GSO,French Guiana,SES,Commercial,Communications,Ariane,1 39617U 14011B   24202.72068972  .00000144  00000+0  00000+0 0  9991,2 39617   0.0837 298.8142 0002212 174.3028 108.7754  1.00269667 37685,1.00269667,0.0002212,GEO
39620,COSMOS 2492 [GLONASS-M],2014,675.73,-1.0,+,65.66,Active,0,MEO,Russia,Russia/USSR,Unknown,Unknown,Unknown,1 39620U 14012A   24200.61033621 -.00000060  00000+0  00000+0 0  9993,2 39620  65.6613 337.5734 0010822 322.6628  37.2625  2.13103154 80354,2.13103154,0.0010822,MEO
39624,SJ-11-06,2014,98.61,-1.0,+,98.03,Active,1,LEO,PRC,China,Government,Technology Development,Long March,1 39624U 14014A   24203.61811908  .00001495  00000+0  31796-3 0  9996,2 39624  98.0317 243.2574 0014394  17.7775 342.3927 14.60368830549115,14.6036883,0.0014394,LEO
39634,SENTINEL-1A,2014,98.68,2300.0,+,98.18,Active,1,LEO,French Guiana,ESA,Government,Earth Observation,Soyuz,1 39634U 14016A   24203.57342792  .00000654  00000+0  14835-3 0  9995,2 39634  98.1799 210.1706 0001374  89.8730 270.2628 14.59197802548579,14.59197802,0.0001374,LEO
39635,IRNSS-1B,2014,1436.09,1432.0,+,28.92,Active,1,GSO,India,India,Government,Navigation (Global or Regional Positioning),PSLV,1 39635U 14017A   24202.72686833  .00000147  00000+0  00000+0 0  9992,2 39635  28.9193 252.2559 0021927 187.3685 176.0856  1.00272344 37814,1.00272344,0.0021927,GSO
39727,LUCH-5V,2014,1436.11,1148.0,+,3.38,Active,1,GSO,Kazakhstan,Russia/USSR,Government,Communications,Proton,1 39727U 14023A   24203.59542030 -.00000266  00000+0  00000+0 0  9990,2 39727   3.3796  75.8177 0002628  91.2599  81.8629  1.00269963 37387,1.00269963,0.0002628,GSO
39728,KAZSAT-3,2014,1436.03,-1.0,+,0.02,Active,1,GSO,Kazakhstan,Kazakhstan,Commercial,Communications,Proton,1 39728U 14023B   24203.51478413  .00000066  00000+0  00000+0 0  9993,2 39728   0.0185  90.4257 0000534  39.7806  53.3743  1.00266384 35471,1.00266384,5.34e-05,GEO
39731,KAZEOSAT 1,2014,99.86,830.0,+,98.39,Active,1,LEO,French Guiana,Kazakhstan,Government,Earth Observation,Vega,1 39731U 14024A   24203.56062887  .00000683  00000+0  22116-3 0  9998,2 39731  98.3941 279.4461 0001053 104.1370 255.9936 14.42050720538300,14.4205072,0.0001053,LEO
39741,NAVSTAR 70 (USA 251),2014,717.97,1630.0,+,56.71,Active,1,MEO,USA,USA,Commercial/Military,Navigation (Global or Regional Positioning),Delta,1 39741U 14026A   24202.94435514 -.00000071  00000+0  00000+0 0  9999,2 39741  56.7092 358.5605 0030876 315.8271  43.9339  2.00565833 74574,2.00565833,0.0030876,MEO
39761,COSMOS 2496,2014,115.86,280.0,+,82.45,Active,1,LEO,Russia,Russia/USSR,Military,Communications,Rokot,1 39761U 14028A   24203.60543114  .00000013  00000+0  24302-4 0  9994,2 39761  82.4453 184.4096 0020142 151.0217 209.1985 12.42870107461100,12.42870107,0.0020142,LEO
39762,COSMOS 2497,2014,115.86,280.0,+,82.45,Active,1,LEO,Russia,Russia/USSR,Military,Communications,Rokot,1 39762U 14028B   24203.57888443  .00000016  00000+0  45686-4 0  9999,2 39762  82.4499 185.8382 0020912 145.4777 214.7666 12.42884352461102,12.42884352,0.0020912,LEO
39763,COSMOS 2498,2014,115.85,280.0,+,82.45,Active,1,LEO,Russia,Russia/USSR,Military,Communications,Rokot,1 39763U 14028C   24203.52455454  .00000011  00000+0  76980-5 0  9994,2 39763  82.4462 184.6539 0021520 145.8589 214.3880 12.42942337461129,12.42942337,0.002152,LEO
39766,ALOS-2,2014,97.33,2120.0,+,97.92,Active,1,LEO,Japan,Japan,Government,Earth Observation,H2A,1 39766U 14029A   24203.53531194  .00003898  00000+0  52854-3 0  9993,2 39766  97.9236 299.6859 0001560  98.6427 261.4961 14.79469406548720,14.79469406,0.000156,LEO
39767,UNIFORM 1,2014,96.69,50.0,+,97.82,Active,1,LEO,Japan,Japan,Civil,Earth Observation,H2A,1 39767U 14029B   24203.29524985  .00004780  00000+0  51045-3 0  9999,2 39767  97.8207 294.6135 0006895 100.8854 259.3140 14.89250996550378,14.89250996,0.0006895,LEO
39768,SOCRATES,2014,96.7,48.0,+,97.88,Active,1,LEO,Japan,Japan,Commercial,Technology Development,H2A,1 39768U 14029C   24203.34500453  .00004432  00000+0  47493-3 0  9996,2 39768  97.8778 304.5715 0007805 120.4694 239.7295 14.89152828550614,14.89152828,0.0007805,LEO
39769,RISING 2,2014,96.94,41.0,+,97.74,Active,1,LEO,Japan,Japan,Civil,Earth Observation,H2A,1 39769U 14029D   24203.54750959  .00010126  00000+0  11786-2 0  9999,2 39769  97.7357 276.3962 0005272 102.2107 257.9699 14.85461145549754,14.85461145,0.0005272,LEO
39770,SPROUT,2014,92.03,7.1,+,98.0,Active,1,LEO,Japan,Japan,Civil,Technology Development,H2A,1 39770U 14029E   24203.61452500  .00462136  00000+0  43290-2 0  9997,2 39770  98.0036   0.3164 0008037 284.4644  75.5721 15.65752067553002,15.65752067,0.0008037,LEO
39773,EUTELSAT 3B,2014,1436.1,5967.0,+,0.06,Active,1,GSO,Sea Launch Platform,EUTELSAT,Commercial,Communications,Zenit,1 39773U 14030A   24203.57516706  .00000025  00000+0  00000+0 0  9990,2 39773   0.0607  14.4047 0004207 123.9301  11.6286  1.00271827 37097,1.00271827,0.0004207,GEO
40001,COSMOS 2500 [GLONASS-M],2014,675.72,1415.0,+,65.6,Active,1,MEO,Russia,Russia/USSR,Commercial/Military,Navigation (Global or Regional Positioning),Soyuz,1 40001U 14032A   24202.66630515 -.00000056  00000+0  00000+0 0  9997,2 40001  65.5977 337.3069 0007315 190.0798 169.9059  2.13105947 78610,2.13105947,0.0007315,MEO
40010,KAZEOSAT 2,2014,97.13,185.0,+,97.62,Active,1,LEO,Russia,Kazakhstan,Government,Earth Observation,Dnepr,1 40010U 14033A   24203.60756734  .00001513  00000+0  19394-3 0  9993,2 40010  97.6163  67.0519 0013312  94.9311 265.3423 14.82597466545768,14.82597466,0.0013312,LEO
40011,HODOYOSHI-4,2014,97.01,60.0,+,97.58,Active,1,LEO,Russia,Japan,Government,Technology Development,Dnepr,1 40011U 14033B   24203.54742184  .00003376  00000+0  40478-3 0  9997,2 40011  97.5790  51.5464 0026728  87.0581 273.3692 14.84429011545453,14.84429011,0.0026728,LEO
40012,UNISAT-6,2014,97.28,-1.0,+,97.71,Active,0,LEO,Russia,Italy,Unknown,Unknown,Unknown,1 40012U 14033C   24203.41708216  .00006707  00000+0  86802-3 0  9994,2 40012  97.7061   4.4577 0052218 192.2846 167.7098 14.80219320542904,14.8021932,0.0052218,LEO
40013,DEIMOS-2,2014,96.71,310.0,+,97.68,Active,1,LEO,Russia,Spain,Government,Earth Observation,Dnepr,1 40013U 14033D   24203.59665571  .00003583  00000+0  38621-3 0  9995,2 40013  97.6769  89.2318 0002378  99.4978 260.6509 14.89026339534017,14.89026339,0.0002378,LEO
40014,BUGSAT-1 (TITA),2014,95.71,25.0,+,98.12,Active,1,LEO,Russia,Argentina,Commercial,Technology Development,Dnepr,1 40014U 14033E   24203.59596282  .00009809  00000+0  69487-3 0  9999,2 40014  98.1238 246.9403 0035209  20.8677 339.3976 15.04529223550811,15.04529223,0.0035209,LEO
40015,HODOYOSHI-3,2014,97.2,60.0,+,97.6,Active,1,LEO,Russia,Japan,Government,Technology Development,Dnepr,1 40015U 14033F   24203.54323008  .00003746  00000+0  47964-3 0  9999,2 40015  97.5968  27.5603 0036400 121.4470 239.0311 14.81420208544463,14.81420208,0.00364,LEO
40016,SAUDISAT 4,2014,97.48,-1.0,+,97.67,Active,0,LEO,Russia,Saudi Arabia,Unknown,Unknown,Unknown,1 40016U 14033G   24203.53681644  .00002214  00000+0  31346-3 0  9998,2 40016  97.6692   7.6475 0046849 175.3501 184.8155 14.77273316543278,14.77273316,0.0046849,LEO
40018,APRIZESAT 9,2014,97.82,12.0,+,97.81,Active,1,LEO,Russia,USA,Commercial,Communications/Maritime Tracking,Dnepr,1 40018U 14033J   24203.38062324  .00001560  00000+0  24762-3 0  9998,2 40018  97.8076 347.6498 0067420 277.3365  82.0184 14.72028638541100,14.72028638,0.006742,LEO
40019,APRIZESAT 10,2014,98.03,12.0,+,97.87,Active,1,LEO,Russia,USA,Commercial,Communications/Maritime Tracking,Dnepr,1 40019U 14033K   24203.33513381  .00001192  00000+0  20211-3 0  9994,2 40019  97.8723 339.4874 0080879 336.6799  23.0746 14.68939151540014,14.68939151,0.0080879,LEO
